[{"OBJECT_NAME":"GRUS-3ALPHA","OBJECT_ID":"2025-135BD","EPOCH":"2026-03-09T23:10:13.111392","MEAN_MOTION":14.92826642,"ECCENTRICITY":0.00023593,"INCLINATION":97.7632,"RA_OF_ASC_NODE":184.4611,"ARG_OF_PERICENTER":350.2474,"MEAN_ANOMALY":9.8699,"EPHEMERIS_TYPE":0,"CLASSIFICATION_TYPE":"U","NORAD_CAT_ID":64579,"ELEMENT_SET_NO":999,"REV_AT_EPOCH":3907,"BSTAR":0.00014972204,"MEAN_MOTION_DOT":1.493e-5,"MEAN_MOTION_DDOT":0},{"OBJECT_NAME":"AIST-1 (RS41)","OBJECT_ID":"2013-078C","EPOCH":"2026-03-09T23:05:53.785248","MEAN_MOTION":14.95763496,"ECCENTRICITY":0.00150774,"INCLINATION":82.4188,"RA_OF_ASC_NODE":6.9784,"ARG_OF_PERICENTER":249.0877,"MEAN_ANOMALY":110.8731,"EPHEMERIS_TYPE":0,"CLASSIFICATION_TYPE":"U","NORAD_CAT_ID":39492,"ELEMENT_SET_NO":999,"REV_AT_EPOCH":66041,"BSTAR":0.00019220788,"MEAN_MOTION_DOT":2.171e-5,"MEAN_MOTION_DDOT":0}]
